NORAD_CAT_ID,OBJECT_NAME,OBJECT_TYPE,EPOCH,MEAN_MOTION,ECCENTRICITY,INCLINATION,RA_OF_ASC_NODE,ARG_OF_PERICENTER,MEAN_ANOMALY,BSTAR,MEAN_MOTION_DOT,MEAN_MOTION_DDOT,TLE_LINE0,TLE_LINE1,TLE_LINE2,SEMIMAJOR_AXIS,PERIOD,APOGEE,PERIGEE,DECAYED
52349.0,STARLINK-3819,PAYLOAD,2024-02-19 22:23:52,15.08823205,0.0001571,53.216,320.4241,83.1318,276.9853,-0.00015123,-2.693e-05,0.0,0 STARLINK-3819,1 52349U 22045U   24050.93324997 -.00002693  00000-0 -15123-3 0  9990,2 52349  53.2160 320.4241 0001571  83.1318 276.9853 15.08823205102744,6917.932,95.439,540.884,538.71,0.0
52349.0,STARLINK-3819,PAYLOAD,2024-02-20 11:06:57,15.08837701,0.000141,53.2173,318.0444,78.0548,282.0602,0.00053389,8.219e-05,0.0,0 STARLINK-3819,1 52349U 22045U   24051.46317110  .00008219  00000-0  53389-3 0  9992,2 52349  53.2173 318.0444 0001410  78.0548 282.0602 15.08837701102821,6917.887,95.438,540.728,538.777,0.0
52349.0,STARLINK-3819,PAYLOAD,2024-02-20 22:14:39,15.08860287,0.0001421,53.2169,315.9618,77.754,282.3612,0.0013188,0.00020775,0.0,0 STARLINK-3819,1 52349U 22045U   24051.92684841  .00020775  00000-0  13188-2 0  9994,2 52349  53.2169 315.9618 0001421  77.7540 282.3612 15.08860287102891,6917.818,95.436,540.666,538.7,0.0
52349.0,STARLINK-3819,PAYLOAD,2024-02-20 23:50:02,15.08869596,0.0001418,53.2166,315.6648,78.0397,282.0754,0.0016424,0.00025969,0.0,0 STARLINK-3819,1 52349U 22045U   24051.99308692  .00025969  00000-0  16424-2 0  9994,2 52349  53.2166 315.6648 0001418  78.0397 282.0754 15.08869596102906,6917.79,95.436,540.636,538.674,0.0
52349.0,STARLINK-3819,PAYLOAD,2024-02-21 10:57:44,15.08864119,0.0001913,53.2166,313.5839,79.6456,280.4752,0.0012694,0.00019986,0.0,0 STARLINK-3819,1 52349U 22045U   24052.45676370  .00019986  00000-0  12694-2 0  9994,2 52349  53.2166 313.5839 0001913  79.6456 280.4752 15.08864119102971,6917.807,95.436,540.995,538.348,0.0
52349.0,STARLINK-3819,PAYLOAD,2024-02-21 20:30:02,15.0885557,0.0002138,53.2179,311.7967,109.2473,250.875,0.00076397,0.00011897,0.0,0 STARLINK-3819,1 52349U 22045U   24052.85420124  .00011897  00000-0  76397-3 0  9996,2 52349  53.2179 311.7967 0002138 109.2473 250.8750 15.08855570103034,6917.833,95.437,541.177,538.219,0.0
52349.0,STARLINK-3819,PAYLOAD,2024-02-21 22:05:25,15.08854831,0.0001802,53.2182,311.4986,117.0849,243.0327,0.00024066,3.546e-05,0.0,0 STARLINK-3819,1 52349U 22045U   24052.92043927  .00003546  00000-0  24066-3 0  9994,2 52349  53.2182 311.4986 0001802 117.0849 243.0327 15.08854831103041,6917.835,95.437,540.947,538.453,0.0
52349.0,STARLINK-3819,PAYLOAD,2024-02-22 02:51:35,15.08860058,0.0001426,53.2173,310.6095,95.4875,264.628,0.0006836,0.00010614,0.0,0 STARLINK-3819,1 52349U 22045U   24053.11915839  .00010614  00000-0  68360-3 0  9995,2 52349  53.2173 310.6095 0001426  95.4875 264.6280 15.08860058103071,6917.819,95.436,540.671,538.698,0.0
52349.0,STARLINK-3819,PAYLOAD,2024-02-22 21:56:13,15.08839769,0.0001667,53.2169,307.037,107.3415,252.776,0.00014921,2.087e-05,0.0,0 STARLINK-3819,1 52349U 22045U   24053.91404188  .00002087  00000-0  14921-3 0  9992,2 52349  53.2169 307.0370 0001667 107.3415 252.7760 15.08839769103191,6917.881,95.438,540.899,538.593,0.0
52349.0,STARLINK-3819,PAYLOAD,2024-02-23 21:47:00,15.08839152,0.0001631,53.2169,302.577,109.0372,251.0797,6.9241e-05,8.14e-06,0.0,0 STARLINK-3819,1 52349U 22045U   24054.90764458  .00000814  00000-0  69241-4 0  9993,2 52349  53.2169 302.5770 0001631 109.0372 251.0797 15.08839152103342,6917.883,95.438,540.876,538.62,0.0
52349.0,STARLINK-3819,PAYLOAD,2024-02-23 23:22:23,15.0884251,0.0001421,53.2156,302.2807,88.7039,271.4116,2.2071e-05,6.3e-07,0.0,0 STARLINK-3819,1 52349U 22045U   24054.97388341  .00000063  00000-0  22071-4 0  9999,2 52349  53.2156 302.2807 0001421  88.7039 271.4116 15.08842510103350,6917.873,95.437,540.721,538.755,0.0
52349.0,STARLINK-3819,PAYLOAD,2024-02-24 16:51:38,15.08839282,0.0001446,53.2162,299.0147,101.1169,258.9985,0.00014836,2.074e-05,0.0,0 STARLINK-3819,1 52349U 22045U   24055.70252700  .00002074  00000-0  14836-3 0  9993,2 52349  53.2162 299.0147 0001446 101.1169 258.9985 15.08839282103466,6917.883,95.438,540.748,538.747,0.0
52349.0,STARLINK-3819,PAYLOAD,2024-02-25 00:48:33,15.08846679,0.0001488,53.2164,297.5283,100.4974,259.6186,0.0002241,3.281e-05,0.0,0 STARLINK-3819,1 52349U 22045U   24056.03372292  .00003281  00000-0  22410-3 0  9997,2 52349  53.2164 297.5283 0001488 100.4974 259.6186 15.08846679103519,6917.86,95.437,540.754,538.696,0.0
52349.0,STARLINK-3819,PAYLOAD,2024-02-25 08:45:29,15.08840223,0.0001345,53.2153,296.0382,89.2432,270.8714,0.00011198,1.495e-05,0.0,0 STARLINK-3819,1 52349U 22045U   24056.36492558  .00001495  00000-0  11198-3 0  9997,2 52349  53.2153 296.0382 0001345  89.2432 270.8714 15.08840223103562,6917.88,95.438,540.675,538.814,0.0
52349.0,STARLINK-3819,PAYLOAD,2024-02-25 23:03:57,15.08846781,0.0001536,53.2174,293.3606,85.3391,274.7776,0.0001504,2.107e-05,0.0,0 STARLINK-3819,1 52349U 22045U   24056.96108247  .00002107  00000-0  15040-3 0  9993,2 52349  53.2174 293.3606 0001536  85.3391 274.7776 15.08846781103653,6917.86,95.437,540.787,538.662,0.0
52349.0,STARLINK-3819,PAYLOAD,2024-02-26 02:14:43,15.08850794,0.0001455,53.2159,292.7664,89.8633,270.2526,0.00018747,2.698e-05,0.0,0 STARLINK-3819,1 52349U 22045U   24057.09355908  .00002698  00000-0  18747-3 0  9998,2 52349  53.2159 292.7664 0001455  89.8633 270.2526 15.08850794103676,6917.847,95.437,540.719,538.706,0.0
52349.0,STARLINK-3819,PAYLOAD,2024-02-26 19:43:58,15.08841153,0.0001607,53.217,289.4896,123.3498,236.7648,-7.2452e-05,-1.441e-05,0.0,0 STARLINK-3819,1 52349U 22045U   24057.82220265 -.00001441  00000-0 -72452-4 0  9997,2 52349  53.2170 289.4896 0001607 123.3498 236.7648 15.08841153103784,6917.877,95.437,540.854,538.63,0.0
52349.0,STARLINK-3819,PAYLOAD,2024-02-26 21:19:21,15.08839973,0.0001281,53.2169,289.1914,109.5888,250.5243,-7.6084e-05,-1.499e-05,0.0,0 STARLINK-3819,1 52349U 22045U   24057.88844387 -.00001499  00000-0 -76084-4 0  9998,2 52349  53.2169 289.1914 0001281 109.5888 250.5243 15.08839973103790,6917.88,95.438,540.632,538.859,0.0
52349.0,STARLINK-3819,PAYLOAD,2024-02-27 08:27:04,15.08833723,0.0001468,53.2168,287.1162,89.2993,270.8167,-5.9284e-06,-3.82e-06,0.0,0 STARLINK-3819,1 52349U 22045U   24058.35213074 -.00000382  00000-0 -59284-5 0  9998,2 52349  53.2168 287.1162 0001468  89.2993 270.8167 15.08833723103865,6917.9,95.438,540.78,538.749,0.0
52349.0,STARLINK-3819,PAYLOAD,2024-02-27 22:45:32,15.08840675,0.0001297,53.2158,284.4361,96.5626,263.5513,2.4922e-05,1.09e-06,0.0,0 STARLINK-3819,1 52349U 22045U   24058.94828856  .00000109  00000-0  24922-4 0  9998,2 52349  53.2158 284.4361 0001297  96.5626 263.5513 15.08840675103957,6917.878,95.438,540.641,538.846,0.0
52349.0,STARLINK-3819,PAYLOAD,2024-02-28 08:17:50,15.08842558,0.0001324,53.2156,282.6561,93.9344,266.1799,8.5897e-05,1.08e-05,0.0,0 STARLINK-3819,1 52349U 22045U   24059.34572906  .00001080  00000-0  85897-4 0  9992,2 52349  53.2156 282.6561 0001324  93.9344 266.1799 15.08842558104011,6917.873,95.437,540.653,538.822,0.0
52349.0,STARLINK-3819,PAYLOAD,2024-02-28 21:00:56,15.08843495,0.0001344,53.2155,280.2769,90.5304,269.5842,0.00022171,3.243e-05,0.0,0 STARLINK-3819,1 52349U 22045U   24059.87564991  .00003243  00000-0  22171-3 0  9993,2 52349  53.2155 280.2769 0001344  90.5304 269.5842 15.08843495104090,6917.87,95.437,540.664,538.805,0.0
52349.0,STARLINK-3819,PAYLOAD,2024-02-29 14:30:11,15.08831481,0.0001424,53.2156,277.0062,94.4904,265.6251,0.00027941,4.161e-05,0.0,0 STARLINK-3819,1 52349U 22045U   24060.60429712  .00004161  00000-0  27941-3 0  9997,2 52349  53.2156 277.0062 0001424  94.4904 265.6251 15.08831481104205,6917.906,95.438,540.757,538.786,0.0
52349.0,STARLINK-3819,PAYLOAD,2024-02-29 20:51:43,15.08840696,0.0001441,53.2171,275.8157,100.1032,260.0123,7.814e-05,9.56e-06,0.0,0 STARLINK-3819,1 52349U 22045U   24060.86925194  .00000956  00000-0  78140-4 0  9996,2 52349  53.2171 275.8157 0001441 100.1032 260.0123 15.08840696104248,6917.878,95.438,540.74,538.746,0.0
52349.0,STARLINK-3819,PAYLOAD,2024-03-01 00:02:29,15.0883997,0.0001366,53.2166,275.2211,99.0977,261.017,0.00013168,1.808e-05,0.0,0 STARLINK-3819,1 52349U 22045U   24061.00173093  .00001808  00000-0  13168-3 0  9991,2 52349  53.2166 275.2211 0001366  99.0977 261.0170 15.08839970104265,6917.88,95.438,540.69,538.8,0.0
52349.0,STARLINK-3819,PAYLOAD,2024-03-01 20:42:30,15.08844003,0.0001487,53.2169,271.3552,101.5687,258.5472,3.0801e-05,2.02e-06,0.0,0 STARLINK-3819,1 52349U 22045U   24061.86284992  .00000202  00000-0  30801-4 0  9997,2 52349  53.2169 271.3552 0001487 101.5687 258.5472 15.08844003104397,6917.868,95.437,540.762,538.704,0.0
52349.0,STARLINK-3819,PAYLOAD,2024-03-02 18:57:52,15.08890722,0.0001608,53.2165,267.191,92.293,267.8246,-0.00066465,-0.00010865,0.0,0 STARLINK-3819,1 52349U 22045U   24062.79018738 -.00010865  00000-0 -66465-3 0  9995,2 52349  53.2165 267.1910 0001608  92.2930 267.8246 15.08890722104533,6917.725,95.434,540.703,538.478,0.0
52349.0,STARLINK-3819,PAYLOAD,2024-03-03 06:05:35,15.08846149,0.0001328,53.2166,265.1107,92.2206,267.8939,0.00011965,1.617e-05,0.0,0 STARLINK-3819,1 52349U 22045U   24063.25388614  .00001617  00000-0  11965-3 0  9998,2 52349  53.2166 265.1107 0001328  92.2206 267.8939 15.08846149104606,6917.862,95.437,540.645,538.808,0.0
52349.0,STARLINK-3819,PAYLOAD,2024-03-03 14:02:32,15.08838508,0.0001683,53.2173,263.6294,109.1846,250.9329,2.6821e-05,1.39e-06,0.0,0 STARLINK-3819,1 52349U 22045U   24063.58509425  .00000139  00000-0  26821-4 0  9995,2 52349  53.2173 263.6294 0001683 109.1846 250.9329 15.08838508104657,6917.885,95.438,540.914,538.586,0.0
52349.0,STARLINK-3819,PAYLOAD,2024-03-03 18:48:41,15.08833873,0.0001432,53.2168,262.7344,107.929,252.1859,1.2629e-05,-8.7e-07,0.0,0 STARLINK-3819,1 52349U 22045U   24063.78381752 -.00000087  00000-0  12629-4 0  9992,2 52349  53.2168 262.7344 0001432 107.9290 252.1859 15.08833873104683,6917.899,95.438,540.755,538.773,0.0
